KUIPER-00089            
1 64834U 25151U   25211.91324673  .00011329  00000+0  33632-3 0  9990
2 64834  51.8780 217.0282 0005486 205.5922 154.4793 15.35260366  2244
KUIPER-00090            
1 64835U 25151V   25212.17584152  .00013120  00000+0  38975-3 0  9996
2 64835  51.8777 215.7863 0005727 214.3398 145.7218 15.35088866  2275
KUIPER-00091            
1 64836U 25151W   25211.90903608  .00014678  00000+0  42548-3 0  9998
2 64836  51.8772 216.9960 0005798 185.0076 175.0853 15.35759421  2247
KUIPER-00092            
1 64837U 25151X   25212.17136808  .00020847  00000+0  60301-3 0  9991
2 64837  51.8769 215.7521 0005413 194.5901 165.4930 15.35563841  3496
KUIPER-00093            
1 64838U 25151Y   25211.91312436  .00015611  00000+0  45807-3 0  9993
2 64838  51.8780 217.0278 0005214 198.6510 161.4285 15.35326778  2241
KUIPER-00094            
1 64839U 25151Z   25211.91061987  .00028043  00000+0  80526-3 0  9996
2 64839  51.8770 217.0052 0005328 191.7841 168.3021 15.35616966  2243
