<?xml version="1.0" encoding="UTF-8"?>
<ndm xmlns:xsi="http://www.w3.org/2001/XMLSchema-instance" xsi:noNamespaceSchemaLocation="https://sanaregistry.org/r/ndmxml_unqualified/ndmxml-2.0.0-master-2.0.xsd">
<omm id="CCSDS_OMM_VERS" version="2.0">
<header><CREATION_DATE/><ORIGINATOR/></header><body><segment><metadata><OBJECT_NAME>KUIPER-00089</OBJECT_NAME><OBJECT_ID>2025-151U</OBJECT_ID><CENTER_NAME>EARTH</CENTER_NAME><REF_FRAME>TEME</REF_FRAME><TIME_SYSTEM>UTC</TIME_SYSTEM><MEAN_ELEMENT_THEORY>SGP4</MEAN_ELEMENT_THEORY></metadata><data><meanElements><EPOCH>2025-07-30T21:55:04.517472</EPOCH><MEAN_MOTION>15.35260366</MEAN_MOTION><ECCENTRICITY>.0005486</ECCENTRICITY><INCLINATION>51.8780</INCLINATION><RA_OF_ASC_NODE>217.0282</RA_OF_ASC_NODE><ARG_OF_PERICENTER>205.5922</ARG_OF_PERICENTER><MEAN_ANOMALY>154.4793</MEAN_ANOMALY></meanElements><tleParameters><EPHEMERIS_TYPE>0</EPHEMERIS_TYPE><CLASSIFICATION_TYPE>U</CLASSIFICATION_TYPE><NORAD_CAT_ID>64834</NORAD_CAT_ID><ELEMENT_SET_NO>999</ELEMENT_SET_NO><REV_AT_EPOCH>224</REV_AT_EPOCH><BSTAR>.33632E-3</BSTAR><MEAN_MOTION_DOT>.11329E-3</MEAN_MOTION_DOT><MEAN_MOTION_DDOT>0</MEAN_MOTION_DDOT></tleParameters></data></segment></body></omm>
<omm id="CCSDS_OMM_VERS" version="2.0">
<header><CREATION_DATE/><ORIGINATOR/></header><body><segment><metadata><OBJECT_NAME>KUIPER-00090</OBJECT_NAME><OBJECT_ID>2025-151V</OBJECT_ID><CENTER_NAME>EARTH</CENTER_NAME><REF_FRAME>TEME</REF_FRAME><TIME_SYSTEM>UTC</TIME_SYSTEM><MEAN_ELEMENT_THEORY>SGP4</MEAN_ELEMENT_THEORY></metadata><data><meanElements><EPOCH>2025-07-31T04:13:12.707328</EPOCH><MEAN_MOTION>15.35088866</MEAN_MOTION><ECCENTRICITY>.0005727</ECCENTRICITY><INCLINATION>51.8777</INCLINATION><RA_OF_ASC_NODE>215.7863</RA_OF_ASC_NODE><ARG_OF_PERICENTER>214.3398</ARG_OF_PERICENTER><MEAN_ANOMALY>145.7218</MEAN_ANOMALY></meanElements><tleParameters><EPHEMERIS_TYPE>0</EPHEMERIS_TYPE><CLASSIFICATION_TYPE>U</CLASSIFICATION_TYPE><NORAD_CAT_ID>64835</NORAD_CAT_ID><ELEMENT_SET_NO>999</ELEMENT_SET_NO><REV_AT_EPOCH>227</REV_AT_EPOCH><BSTAR>.38975E-3</BSTAR><MEAN_MOTION_DOT>.1312E-3</MEAN_MOTION_DOT><MEAN_MOTION_DDOT>0</MEAN_MOTION_DDOT></tleParameters></data></segment></body></omm>
<omm id="CCSDS_OMM_VERS" version="2.0">
<header><CREATION_DATE/><ORIGINATOR/></header><body><segment><metadata><OBJECT_NAME>KUIPER-00091</OBJECT_NAME><OBJECT_ID>2025-151W</OBJECT_ID><CENTER_NAME>EARTH</CENTER_NAME><REF_FRAME>TEME</REF_FRAME><TIME_SYSTEM>UTC</TIME_SYSTEM><MEAN_ELEMENT_THEORY>SGP4</MEAN_ELEMENT_THEORY></metadata><data><meanElements><EPOCH>2025-07-30T21:49:00.717312</EPOCH><MEAN_MOTION>15.35759421</MEAN_MOTION><ECCENTRICITY>.0005798</ECCENTRICITY><INCLINATION>51.8772</INCLINATION><RA_OF_ASC_NODE>216.9960</RA_OF_ASC_NODE><ARG_OF_PERICENTER>185.0076</ARG_OF_PERICENTER><MEAN_ANOMALY>175.0853</MEAN_ANOMALY></meanElements><tleParameters><EPHEMERIS_TYPE>0</EPHEMERIS_TYPE><CLASSIFICATION_TYPE>U</CLASSIFICATION_TYPE><NORAD_CAT_ID>64836</NORAD_CAT_ID><ELEMENT_SET_NO>999</ELEMENT_SET_NO><REV_AT_EPOCH>224</REV_AT_EPOCH><BSTAR>.42548E-3</BSTAR><MEAN_MOTION_DOT>.14678E-3</MEAN_MOTION_DOT><MEAN_MOTION_DDOT>0</MEAN_MOTION_DDOT></tleParameters></data></segment></body></omm>
<omm id="CCSDS_OMM_VERS" version="2.0">
<header><CREATION_DATE/><ORIGINATOR/></header><body><segment><metadata><OBJECT_NAME>KUIPER-00092</OBJECT_NAME><OBJECT_ID>2025-151X</OBJECT_ID><CENTER_NAME>EARTH</CENTER_NAME><REF_FRAME>TEME</REF_FRAME><TIME_SYSTEM>UTC</TIME_SYSTEM><MEAN_ELEMENT_THEORY>SGP4</MEAN_ELEMENT_THEORY></metadata><data><meanElements><EPOCH>2025-07-31T04:06:46.202112</EPOCH><MEAN_MOTION>15.35563841</MEAN_MOTION><ECCENTRICITY>.0005413</ECCENTRICITY><INCLINATION>51.8769</INCLINATION><RA_OF_ASC_NODE>215.7521</RA_OF_ASC_NODE><ARG_OF_PERICENTER>194.5901</ARG_OF_PERICENTER><MEAN_ANOMALY>165.4930</MEAN_ANOMALY></meanElements><tleParameters><EPHEMERIS_TYPE>0</EPHEMERIS_TYPE><CLASSIFICATION_TYPE>U</CLASSIFICATION_TYPE><NORAD_CAT_ID>64837</NORAD_CAT_ID><ELEMENT_SET_NO>999</ELEMENT_SET_NO><REV_AT_EPOCH>349</REV_AT_EPOCH><BSTAR>.60301E-3</BSTAR><MEAN_MOTION_DOT>.20847E-3</MEAN_MOTION_DOT><MEAN_MOTION_DDOT>0</MEAN_MOTION_DDOT></tleParameters></data></segment></body></omm>
<omm id="CCSDS_OMM_VERS" version="2.0">
<header><CREATION_DATE/><ORIGINATOR/></header><body><segment><metadata><OBJECT_NAME>KUIPER-00093</OBJECT_NAME><OBJECT_ID>2025-151Y</OBJECT_ID><CENTER_NAME>EARTH</CENTER_NAME><REF_FRAME>TEME</REF_FRAME><TIME_SYSTEM>UTC</TIME_SYSTEM><MEAN_ELEMENT_THEORY>SGP4</MEAN_ELEMENT_THEORY></metadata><data><meanElements><EPOCH>2025-07-30T21:54:53.944704</EPOCH><MEAN_MOTION>15.35326778</MEAN_MOTION><ECCENTRICITY>.0005214</ECCENTRICITY><INCLINATION>51.8780</INCLINATION><RA_OF_ASC_NODE>217.0278</RA_OF_ASC_NODE><ARG_OF_PERICENTER>198.6510</ARG_OF_PERICENTER><MEAN_ANOMALY>161.4285</MEAN_ANOMALY></meanElements><tleParameters><EPHEMERIS_TYPE>0</EPHEMERIS_TYPE><CLASSIFICATION_TYPE>U</CLASSIFICATION_TYPE><NORAD_CAT_ID>64838</NORAD_CAT_ID><ELEMENT_SET_NO>999</ELEMENT_SET_NO><REV_AT_EPOCH>224</REV_AT_EPOCH><BSTAR>.45807E-3</BSTAR><MEAN_MOTION_DOT>.15611E-3</MEAN_MOTION_DOT><MEAN_MOTION_DDOT>0</MEAN_MOTION_DDOT></tleParameters></data></segment></body></omm>
<omm id="CCSDS_OMM_VERS" version="2.0">
<header><CREATION_DATE/><ORIGINATOR/></header><body><segment><metadata><OBJECT_NAME>KUIPER-00094</OBJECT_NAME><OBJECT_ID>2025-151Z</OBJECT_ID><CENTER_NAME>EARTH</CENTER_NAME><REF_FRAME>TEME</REF_FRAME><TIME_SYSTEM>UTC</TIME_SYSTEM><MEAN_ELEMENT_THEORY>SGP4</MEAN_ELEMENT_THEORY></metadata><data><meanElements><EPOCH>2025-07-30T21:51:17.556768</EPOCH><MEAN_MOTION>15.35616966</MEAN_MOTION><ECCENTRICITY>.0005328</ECCENTRICITY><INCLINATION>51.8770</INCLINATION><RA_OF_ASC_NODE>217.0052</RA_OF_ASC_NODE><ARG_OF_PERICENTER>191.7841</ARG_OF_PERICENTER><MEAN_ANOMALY>168.3021</MEAN_ANOMALY></meanElements><tleParameters><EPHEMERIS_TYPE>0</EPHEMERIS_TYPE><CLASSIFICATION_TYPE>U</CLASSIFICATION_TYPE><NORAD_CAT_ID>64839</NORAD_CAT_ID><ELEMENT_SET_NO>999</ELEMENT_SET_NO><REV_AT_EPOCH>224</REV_AT_EPOCH><BSTAR>.80526E-3</BSTAR><MEAN_MOTION_DOT>.28043E-3</MEAN_MOTION_DOT><MEAN_MOTION_DDOT>0</MEAN_MOTION_DDOT></tleParameters></data></segment></body></omm>
</ndm>
